[{"OBJECT_NAME":"ONEWEB-0319","OBJECT_ID":"2021-075AG","EPOCH":"2023-09-08T02:38:57.306336","MEAN_MOTION":13.17652026,"ECCENTRICITY":0.0001362,"INCLINATION":87.922,"RA_OF_ASC_NODE":207.1629,"ARG_OF_PERICENTER":67.314,"MEAN_ANOMALY":292.8135,"EPHEMERIS_TYPE":0,"CLASSIFICATION_TYPE":"U","NORAD_CAT_ID":49105,"ELEMENT_SET_NO":999,"REV_AT_EPOCH":10118,"BSTAR":2.8746e-5,"MEAN_MOTION_DOT":2.4e-7,"MEAN_MOTION_DDOT":0},{"OBJECT_NAME":"ONEWEB-0323","OBJECT_ID":"2021-075AH","EPOCH":"2023-09-07T18:33:11.356704","MEAN_MOTION":13.12443305,"ECCENTRICITY":0.0001788,"INCLINATION":87.9054,"RA_OF_ASC_NODE":192.1094,"ARG_OF_PERICENTER":74.0203,"MEAN_ANOMALY":286.1122,"EPHEMERIS_TYPE":0,"CLASSIFICATION_TYPE":"U","NORAD_CAT_ID":49106,"ELEMENT_SET_NO":999,"REV_AT_EPOCH":10162,"BSTAR":1.9808e-6,"MEAN_MOTION_DOT":1.3e-7,"MEAN_MOTION_DDOT":0},{"OBJECT_NAME":"ONEWEB-0329","OBJECT_ID":"2021-075AJ","EPOCH":"2023-09-07T08:34:36.526944","MEAN_MOTION":13.17650401,"ECCENTRICITY":0.0001916,"INCLINATION":87.9216,"RA_OF_ASC_NODE":207.3148,"ARG_OF_PERICENTER":72.658,"MEAN_ANOMALY":287.4761,"EPHEMERIS_TYPE":0,"CLASSIFICATION_TYPE":"U","NORAD_CAT_ID":49107,"ELEMENT_SET_NO":999,"REV_AT_EPOCH":10007,"BSTAR":0.0003443,"MEAN_MOTION_DOT":1.47e-6,"MEAN_MOTION_DDOT":0},{"OBJECT_NAME":"ONEWEB-0330","OBJECT_ID":"2021-075AK","EPOCH":"2023-09-07T08:37:39.021024","MEAN_MOTION":13.17650067,"ECCENTRICITY":0.0002099,"INCLINATION":87.9205,"RA_OF_ASC_NODE":207.3305,"ARG_OF_PERICENTER":70.4918,"MEAN_ANOMALY":289.644,"EPHEMERIS_TYPE":0,"CLASSIFICATION_TYPE":"U","NORAD_CAT_ID":49108,"ELEMENT_SET_NO":999,"REV_AT_EPOCH":10011,"BSTAR":0.00035438,"MEAN_MOTION_DOT":1.5e-6,"MEAN_MOTION_DDOT":0},{"OBJECT_NAME":"RSW-01","OBJECT_ID":"2021-076A","EPOCH":"2023-09-08T02:29:07.508832","MEAN_MOTION":13.42722571,"ECCENTRICITY":0.0016701,"INCLINATION":86.4149,"RA_OF_ASC_NODE":159.8988,"ARG_OF_PERICENTER":25.1365,"MEAN_ANOMALY":335.0589,"EPHEMERIS_TYPE":0,"CLASSIFICATION_TYPE":"U","NORAD_CAT_ID":49112,"ELEMENT_SET_NO":999,"REV_AT_EPOCH":9992,"BSTAR":8.6596e-5,"MEAN_MOTION_DOT":6.5e-7,"MEAN_MOTION_DDOT":0},{"OBJECT_NAME":"PAYLOAD B","OBJECT_ID":"2021-076B","EPOCH":"2023-09-08T01:57:12.590208","MEAN_MOTION":14.08819405,"ECCENTRICITY":0.0020633,"INCLINATION":86.4044,"RA_OF_ASC_NODE":128.6284,"ARG_OF_PERICENTER":135.2711,"MEAN_ANOMALY":225.0139,"EPHEMERIS_TYPE":0,"CLASSIFICATION_TYPE":"U","NORAD_CAT_ID":49113,"ELEMENT_SET_NO":999,"REV_AT_EPOCH":10475,"BSTAR":0.0001245,"MEAN_MOTION_DOT":2.34e-6,"MEAN_MOTION_DDOT":0},{"OBJECT_NAME":"RSW-02","OBJECT_ID":"2021-076C","EPOCH":"2023-09-08T02:36:01.703520","MEAN_MOTION":13.4275346,"ECCENTRICITY":0.0020205,"INCLINATION":86.4148,"RA_OF_ASC_NODE":159.8957,"ARG_OF_PERICENTER":21.2408,"MEAN_ANOMALY":338.9571,"EPHEMERIS_TYPE":0,"CLASSIFICATION_TYPE":"U","NORAD_CAT_ID":49114,"ELEMENT_SET_NO":999,"REV_AT_EPOCH":9992,"BSTAR":0.00013889,"MEAN_MOTION_DOT":9.4e-7,"MEAN_MOTION_DDOT":0},{"OBJECT_NAME":"TJS-7","OBJECT_ID":"2021-077A","EPOCH":"2023-09-07T13:47:47.484960","MEAN_MOTION":1.00269817,"ECCENTRICITY":0.0003128,"INCLINATION":0.4205,"RA_OF_ASC_NODE":95.2222,"ARG_OF_PERICENTER":262.8943,"MEAN_ANOMALY":95.7045,"EPHEMERIS_TYPE":0,"CLASSIFICATION_TYPE":"U","NORAD_CAT_ID":49115,"ELEMENT_SET_NO":999,"REV_AT_EPOCH":763,"BSTAR":0,"MEAN_MOTION_DOT":-1.35e-6,"MEAN_MOTION_DDOT":0},{"OBJECT_NAME":"GAOFEN 5-02","OBJECT_ID":"2021-079A","EPOCH":"2023-09-08T03:08:40.787232","MEAN_MOTION":14.57743463,"ECCENTRICITY":0.0001586,"INCLINATION":98.2097,"RA_OF_ASC_NODE":325.6573,"ARG_OF_PERICENTER":138.6036,"MEAN_ANOMALY":221.5283,"EPHEMERIS_TYPE":0,"CLASSIFICATION_TYPE":"U","NORAD_CAT_ID":49122,"ELEMENT_SET_NO":999,"REV_AT_EPOCH":10649,"BSTAR":9.594e-5,"MEAN_MOTION_DOT":3.93e-6,"MEAN_MOTION_DDOT":0},{"OBJECT_NAME":"CHINASAT 9B","OBJECT_ID":"2021-080A","EPOCH":"2023-09-08T02:34:42.536928","MEAN_MOTION":1.00272456,"ECCENTRICITY":0.0003115,"INCLINATION":0.0212,"RA_OF_ASC_NODE":115.0011,"ARG_OF_PERICENTER":68.7292,"MEAN_ANOMALY":303.2672,"EPHEMERIS_TYPE":0,"CLASSIFICATION_TYPE":"U","NORAD_CAT_ID":49125,"ELEMENT_SET_NO":999,"REV_AT_EPOCH":747,"BSTAR":0,"MEAN_MOTION_DOT":-3.25e-6,"MEAN_MOTION_DDOT":0},{"OBJECT_NAME":"STARLINK-3096","OBJECT_ID":"2021-082B","EPOCH":"2023-09-07T14:45:46.842336","MEAN_MOTION":14.9832724,"ECCENTRICITY":0.0003046,"INCLINATION":70.0007,"RA_OF_ASC_NODE":39.1552,"ARG_OF_PERICENTER":269.663,"MEAN_ANOMALY":90.418,"EPHEMERIS_TYPE":0,"CLASSIFICATION_TYPE":"U","NORAD_CAT_ID":49131,"ELEMENT_SET_NO":999,"REV_AT_EPOCH":11004,"BSTAR":4.5708e-6,"MEAN_MOTION_DOT":-3.8e-7,"MEAN_MOTION_DDOT":0},{"OBJECT_NAME":"STARLINK-3090","OBJECT_ID":"2021-082C","EPOCH":"2023-09-07T18:53:01.790592","MEAN_MOTION":14.9833024,"ECCENTRICITY":0.0003115,"INCLINATION":69.9995,"RA_OF_ASC_NODE":78.7552,"ARG_OF_PERICENTER":269.5974,"MEAN_ANOMALY":90.4828,"EPHEMERIS_TYPE":0,"CLASSIFICATION_TYPE":"U","NORAD_CAT_ID":49132,"ELEMENT_SET_NO":999,"REV_AT_EPOCH":10908,"BSTAR":2.7467e-5,"MEAN_MOTION_DOT":2.35e-6,"MEAN_MOTION_DDOT":0},{"OBJECT_NAME":"STARLINK-3077","OBJECT_ID":"2021-082D","EPOCH":"2023-09-07T17:04:38.236224","MEAN_MOTION":14.98329707,"ECCENTRICITY":0.0003066,"INCLINATION":69.999,"RA_OF_ASC_NODE":78.9226,"ARG_OF_PERICENTER":271.1053,"MEAN_ANOMALY":88.9754,"EPHEMERIS_TYPE":0,"CLASSIFICATION_TYPE":"U","NORAD_CAT_ID":49133,"ELEMENT_SET_NO":999,"REV_AT_EPOCH":10907,"BSTAR":-2.8057e-5,"MEAN_MOTION_DOT":-4.28e-6,"MEAN_MOTION_DDOT":0},{"OBJECT_NAME":"STARLINK-3078","OBJECT_ID":"2021-082E","EPOCH":"2023-09-07T16:58:37.815168","MEAN_MOTION":14.98328818,"ECCENTRICITY":0.0003149,"INCLINATION":69.9989,"RA_OF_ASC_NODE":78.9361,"ARG_OF_PERICENTER":267.5882,"MEAN_ANOMALY":92.4917,"EPHEMERIS_TYPE":0,"CLASSIFICATION_TYPE":"U","NORAD_CAT_ID":49134,"ELEMENT_SET_NO":999,"REV_AT_EPOCH":11027,"BSTAR":-5.6558e-5,"MEAN_MOTION_DOT":-7.68e-6,"MEAN_MOTION_DDOT":0},{"OBJECT_NAME":"STARLINK-3073","OBJECT_ID":"2021-082F","EPOCH":"2023-09-07T13:03:38.332224","MEAN_MOTION":14.98325068,"ECCENTRICITY":0.0003139,"INCLINATION":70.0012,"RA_OF_ASC_NODE":39.3259,"ARG_OF_PERICENTER":270.0649,"MEAN_ANOMALY":90.0151,"EPHEMERIS_TYPE":0,"CLASSIFICATION_TYPE":"U","NORAD_CAT_ID":49135,"ELEMENT_SET_NO":999,"REV_AT_EPOCH":11004,"BSTAR":-3.2884e-5,"MEAN_MOTION_DOT":-4.85e-6,"MEAN_MOTION_DDOT":0},{"OBJECT_NAME":"STARLINK-3084","OBJECT_ID":"2021-082G","EPOCH":"2023-09-07T11:21:49.591296","MEAN_MOTION":14.98327454,"ECCENTRICITY":0.0003171,"INCLINATION":69.9998,"RA_OF_ASC_NODE":59.5154,"ARG_OF_PERICENTER":269.8185,"MEAN_ANOMALY":90.261,"EPHEMERIS_TYPE":0,"CLASSIFICATION_TYPE":"U","NORAD_CAT_ID":49136,"ELEMENT_SET_NO":999,"REV_AT_EPOCH":10954,"BSTAR":3.9057e-5,"MEAN_MOTION_DOT":3.73e-6,"MEAN_MOTION_DDOT":0},{"OBJECT_NAME":"STARLINK-3055","OBJECT_ID":"2021-082H","EPOCH":"2023-09-07T11:15:48.994848","MEAN_MOTION":14.98330576,"ECCENTRICITY":0.0002954,"INCLINATION":70.0007,"RA_OF_ASC_NODE":59.5298,"ARG_OF_PERICENTER":269.0507,"MEAN_ANOMALY":91.0314,"EPHEMERIS_TYPE":0,"CLASSIFICATION_TYPE":"U","NORAD_CAT_ID":49137,"ELEMENT_SET_NO":999,"REV_AT_EPOCH":10953,"BSTAR":1.6752e-5,"MEAN_MOTION_DOT":1.07e-6,"MEAN_MOTION_DDOT":0}]
