ONEWEB-0319             
1 49105U 21075AG  23251.11038549  .00000024  00000+0  28746-4 0  9994
2 49105  87.9220 207.1629 0001362  67.3140 292.8135 13.17652026101183
ONEWEB-0323             
1 49106U 21075AH  23250.77304811  .00000013  00000+0  19808-5 0  9992
2 49106  87.9054 192.1094 0001788  74.0203 286.1122 13.12443305101629
ONEWEB-0329             
1 49107U 21075AJ  23250.35736721  .00000147  00000+0  34430-3 0  9990
2 49107  87.9216 207.3148 0001916  72.6580 287.4761 13.17650401100077
ONEWEB-0330             
1 49108U 21075AK  23250.35947941  .00000150  00000+0  35438-3 0  9992
2 49108  87.9205 207.3305 0002099  70.4918 289.6440 13.17650067100116
RSW-01                  
1 49112U 21076A   23251.10355913  .00000065  00000+0  86596-4 0  9991
2 49112  86.4149 159.8988 0016701  25.1365 335.0589 13.42722571 99922
PAYLOAD B               
1 49113U 21076B   23251.08139572  .00000234  00000+0  12450-3 0  9995
2 49113  86.4044 128.6284 0020633 135.2711 225.0139 14.08819405104750
RSW-02                  
1 49114U 21076C   23251.10835305  .00000094  00000+0  13889-3 0  9997
2 49114  86.4148 159.8957 0020205  21.2408 338.9571 13.42753460 99922
TJS-7                   
1 49115U 21077A   23250.57485515 -.00000135  00000+0  00000+0 0  9997
2 49115   0.4205  95.2222 0003128 262.8943  95.7045  1.00269817  7633
GAOFEN 5-02             
1 49122U 21079A   23251.13102763  .00000393  00000+0  95940-4 0  9998
2 49122  98.2097 325.6573 0001586 138.6036 221.5283 14.57743463106490
CHINASAT 9B             
1 49125U 21080A   23251.10743677 -.00000325  00000+0  00000+0 0  9999
2 49125   0.0212 115.0011 0003115  68.7292 303.2672  1.00272456  7479
STARLINK-3096           
1 49131U 21082B   23250.61512549 -.00000038  00000+0  45708-5 0  9996
2 49131  70.0007  39.1552 0003046 269.6630  90.4180 14.98327240110042
STARLINK-3090           
1 49132U 21082C   23250.78682628  .00000235  00000+0  27467-4 0  9990
2 49132  69.9995  78.7552 0003115 269.5974  90.4828 14.98330240109087
STARLINK-3077           
1 49133U 21082D   23250.71155366 -.00000428  00000+0 -28057-4 0  9990
2 49133  69.9990  78.9226 0003066 271.1053  88.9754 14.98329707109070
STARLINK-3078           
1 49134U 21082E   23250.70738212 -.00000768  00000+0 -56558-4 0  9991
2 49134  69.9989  78.9361 0003149 267.5882  92.4917 14.98328818110277
STARLINK-3073           
1 49135U 21082F   23250.54419366 -.00000485  00000+0 -32884-4 0  9992
2 49135  70.0012  39.3259 0003139 270.0649  90.0151 14.98325068110047
STARLINK-3084           
1 49136U 21082G   23250.47349064  .00000373  00000+0  39057-4 0  9995
2 49136  69.9998  59.5154 0003171 269.8185  90.2610 14.98327454109549
STARLINK-3055           
1 49137U 21082H   23250.46931707  .00000107  00000+0  16752-4 0  9998
2 49137  70.0007  59.5298 0002954 269.0507  91.0314 14.98330576109539
